0 COSMOS 1869 DEB
1 25300U 87062C   13281.97347475  .00020306  00000-0  73947-3 0    90
2 25300 082.4966 230.5517 0001020 265.8849 135.4469 15.28089852859074
0 COSMOS 1869 DEB
1 25300U 87062C   13283.15561608  .00018048  00000-0  65647-3 0   108
2 25300 082.4965 229.3615 0001062 250.6747 169.6798 15.28131290859251
0 COSMOS 1869 DEB
1 25300U 87062C   13285.96813606  .00014969  00000-0  54311-3 0   123
2 25300 082.4967 226.5298 0001342 228.3781 174.9051 15.28213341859686
0 COSMOS 1869 DEB
1 25300U 87062C   13287.35787042  .00016159  00000-0  58567-3 0   133
2 25300 082.4971 225.1300 0001476 215.2203 268.9720 15.28247172859891
0 COSMOS 1869 DEB
1 25300U 87062C   13288.27968979  .00022596  00000-0  81786-3 0   147
2 25300 082.4977 224.2016 0001623 210.0267 302.5447 15.28284447860033
0 COSMOS 1869 DEB
1 25300U 87062C   13289.83268679  .00020889  00000-0  75481-3 0   159
2 25300 082.4983 222.6376 0001862 204.0408 207.5394 15.28342131860272
0 COSMOS 1869 DEB
1 25300U 87062C   13290.88176083  .00017756  00000-0  64092-3 0   169
2 25300 082.4984 221.5811 0001958 196.1248 223.8637 15.28381439860437
0 COSMOS 1869 DEB
1 25300U 87062C   13291.92715377  .00016427  00000-0  59237-3 0   170
2 25300 082.4983 220.5280 0002165 191.3246 216.9705 15.28413578860597
0 COSMOS 1869 DEB
1 25300U 87062C   13293.31518250  .00018859  00000-0  67918-3 0   183
2 25300 082.4984 219.1302 0002393 186.1420 294.6982 15.28455018860805
0 COSMOS 1869 DEB
1 25300U 87062C   13294.36606301  .00019929  00000-0  71693-3 0   199
2 25300 082.4981 218.0720 0002531 181.3481 318.2601 15.28487916860962
0 COSMOS 1869 DEB
1 25300U 87062C   13295.85750068  .00019414  00000-0  69733-3 0   207
2 25300 082.4975 216.5701 0002750 177.3080 243.9012 15.28538273861199
